IRIDIUM 36              
1 24967U 97056C   24290.49772136  .00001868  00000+0  62245-3 0  9995
2 24967  86.3908 275.3313 0002553  88.6889 271.4601 14.37126015417216
IRIDIUM 39              
1 25042U 97069D   24290.47835100  .00002219  00000+0  58533-3 0  9999
2 25042  86.3891 315.6379 0019703  45.8430 314.4389 14.48473691413678
IRIDIUM 38              
1 25043U 97069E   24290.88346047  .00001498  00000+0  49296-3 0  9996
2 25043  86.3974 335.5444 0003029 130.3745 229.7717 14.37619621410996
IRIDIUM 42              
1 25077U 97077A   24290.66337396  .00001489  00000+0  50720-3 0  9999
2 25077  86.3990 341.5036 0002149 110.5951 249.5476 14.35893593406241
IRIDIUM 44              
1 25078U 97077B   24290.50817211  .00001585  00000+0  49992-3 0  9998
2 25078  86.3949 324.1466 0004047  99.3514 260.8143 14.39737791408631
IRIDIUM 45              
1 25104U 97082A   24290.87065474  .00027310  00000+0  13128-2 0  9995
2 25104  86.3666 164.8706 0145771 154.1364 206.7257 15.09683868415171
IRIDIUM 24              
1 25105U 97082B   24290.65323379  .00001786  00000+0  54314-3 0  9995
2 25105  86.3980 183.4874 0011997 152.0078 208.1770 14.41575722408122
IRIDIUM 51              
1 25262U 98018A   24290.72984626  .00036163  00000+0  13650-2 0  9999
2 25262  86.3987 174.3702 0130241  91.9170 269.6994 15.19187676409810
